{
  "norad_id": 64217,
  "name": "STARLINK-34320",
  "history": [
    {
      "epoch": "2026-03-28T21:42:58.506912Z",
      "apogee_km": 476.03389163652446,
      "perigee_km": 474.37291605624796,
      "latitude_deg": -3.979272073773722e-05,
      "longitude_deg": 158.5751008479046,
      "height_km": 476.13040619878257,
      "semi_major_axis_km": 6853.340403846386,
      "eccentricity": 0.00012118,
      "inclination_deg": 53.159,
      "raan_deg": 310.6375,
      "arg_perigee_deg": 91.9975,
      "mean_anomaly_deg": 268.1164,
      "mean_motion_rev_day": 15.30203907
    },
    {
      "epoch": "2026-03-29T00:51:04.945824Z",
      "apogee_km": 475.9233720765387,
      "perigee_km": 474.470465285779,
      "latitude_deg": 6.729120862086638e-05,
      "longitude_deg": 110.81289693215007,
      "height_km": 476.08750412043696,
      "semi_major_axis_km": 6853.333918681159,
      "eccentricity": 0.000106,
      "inclination_deg": 53.1587,
      "raan_deg": 310.0308,
      "arg_perigee_deg": 89.3984,
      "mean_anomaly_deg": 270.7139,
      "mean_motion_rev_day": 15.30206079
    },
    {
      "epoch": "2026-03-30T00:21:52.948224Z",
      "apogee_km": 475.95020775087414,
      "perigee_km": 474.43013978373347,
      "latitude_deg": 4.7039210143917595e-05,
      "longitude_deg": 112.59521403731338,
      "height_km": 476.0320336963674,
      "semi_major_axis_km": 6853.327173767304,
      "eccentricity": 0.0001109,
      "inclination_deg": 53.1579,
      "raan_deg": 305.4788,
      "arg_perigee_deg": 85.7587,
      "mean_anomaly_deg": 274.3541,
      "mean_motion_rev_day": 15.30208338
    },
    {
      "epoch": "2026-03-30T00:21:52.949088Z",
      "apogee_km": 475.9503448174182,
      "perigee_km": 474.4300027171903,
      "latitude_deg": 4.5199015851039555e-05,
      "longitude_deg": 112.59520905633123,
      "height_km": 476.03202355937646,
      "semi_major_axis_km": 6853.327173767304,
      "eccentricity": 0.00011092,
      "inclination_deg": 53.1579,
      "raan_deg": 305.4788,
      "arg_perigee_deg": 85.7587,
      "mean_anomaly_deg": 274.3541,
      "mean_motion_rev_day": 15.30208338
    },
    {
      "epoch": "2026-03-30T20:44:34.607616Z",
      "apogee_km": 475.985410365548,
      "perigee_km": 474.4146255210344,
      "latitude_deg": -1.8949107911687678e-06,
      "longitude_deg": 162.14099323177686,
      "height_km": 476.0982594226114,
      "semi_major_axis_km": 6853.33701794329,
      "eccentricity": 0.0001146,
      "inclination_deg": 53.1584,
      "raan_deg": 301.5351,
      "arg_perigee_deg": 90.0122,
      "mean_anomaly_deg": 270.101,
      "mean_motion_rev_day": 15.30205041
    },
    {
      "epoch": "2026-03-31T13:59:10.044096Z",
      "apogee_km": 475.76123102670044,
      "perigee_km": 474.6605833528056,
      "latitude_deg": -5.9941012794325164e-05,
      "longitude_deg": -100.55265315013867,
      "height_km": 475.99687182173653,
      "semi_major_axis_km": 6853.347907189753,
      "eccentricity": 8.03e-05,
      "inclination_deg": 53.1587,
      "raan_deg": 298.1973,
      "arg_perigee_deg": 78.1904,
      "mean_anomaly_deg": 281.9186,
      "mean_motion_rev_day": 15.30201394
    },
    {
      "epoch": "2026-04-01T19:46:10.621056Z",
      "apogee_km": 477.3625421926554,
      "perigee_km": 472.92983862509845,
      "latitude_deg": -2.277511540938025e-05,
      "longitude_deg": 165.70580752311614,
      "height_km": 476.4422156477065,
      "semi_major_axis_km": 6853.283190408876,
      "eccentricity": 0.0003234,
      "inclination_deg": 53.1575,
      "raan_deg": 292.4313,
      "arg_perigee_deg": 100.426,
      "mean_anomaly_deg": 259.7105,
      "mean_motion_rev_day": 15.30223069
    },
    {
      "epoch": "2026-04-02T13:00:45.512352Z",
      "apogee_km": 476.33136420729534,
      "perigee_km": 473.94998728052815,
      "latitude_deg": -3.6516899366137804e-05,
      "longitude_deg": -96.98452840907268,
      "height_km": 476.10851507890635,
      "semi_major_axis_km": 6853.2776757439115,
      "eccentricity": 0.00017374,
      "inclination_deg": 53.1572,
      "raan_deg": 289.0945,
      "arg_perigee_deg": 93.4042,
      "mean_anomaly_deg": 266.7157,
      "mean_motion_rev_day": 15.30224916
    },
    {
      "epoch": "2026-04-02T22:25:04.117152Z",
      "apogee_km": 475.32862669147744,
      "perigee_km": 474.9075626984586,
      "latitude_deg": 3.568750913396541e-05,
      "longitude_deg": 119.73074913597,
      "height_km": 476.2049476967589,
      "semi_major_axis_km": 6853.255094694968,
      "eccentricity": 3.072e-05,
      "inclination_deg": 53.162,
      "raan_deg": 287.2735,
      "arg_perigee_deg": 207.491,
      "mean_anomaly_deg": 152.6075,
      "mean_motion_rev_day": 15.30232479
    },
    {
      "epoch": "2026-04-03T20:21:48.565728Z",
      "apogee_km": 476.03804759562627,
      "perigee_km": 474.48369695819383,
      "latitude_deg": 4.5351823366392244e-05,
      "longitude_deg": 145.39887686352571,
      "height_km": 476.0176034508248,
      "semi_major_axis_km": 6853.39787227691,
      "eccentricity": 0.0001134,
      "inclination_deg": 53.1586,
      "raan_deg": 283.0281,
      "arg_perigee_deg": 79.5176,
      "mean_anomaly_deg": 280.5953,
      "mean_motion_rev_day": 15.3018466
    },
    {
      "epoch": "2026-04-04T19:52:37.648128Z",
      "apogee_km": 475.75525091452164,
      "perigee_km": 474.6189697770269,
      "latitude_deg": 6.609403082345051e-06,
      "longitude_deg": 147.17816656366313,
      "height_km": 476.0127423448858,
      "semi_major_axis_km": 6853.324110345774,
      "eccentricity": 8.29e-05,
      "inclination_deg": 53.1604,
      "raan_deg": 278.4776,
      "arg_perigee_deg": 82.6085,
      "mean_anomaly_deg": 277.501,
      "mean_motion_rev_day": 15.30209364
    },
    {
      "epoch": "2026-04-05T11:33:09.910080Z",
      "apogee_km": 476.1838351213437,
      "perigee_km": 474.1559416130767,
      "latitude_deg": -1.0227265721436457e-05,
      "longitude_deg": -91.63254698541068,
      "height_km": 475.6130495105661,
      "semi_major_axis_km": 6853.30688836721,
      "eccentricity": 0.00014795,
      "inclination_deg": 53.1595,
      "raan_deg": 275.4451,
      "arg_perigee_deg": 63.3494,
      "mean_anomaly_deg": 296.7658,
      "mean_motion_rev_day": 15.30215132
    },
    {
      "epoch": "2026-04-05T19:23:25.594368Z",
      "apogee_km": 475.9028037834205,
      "perigee_km": 474.44990135267653,
      "latitude_deg": 7.195786297318208e-06,
      "longitude_deg": 148.9621317168954,
      "height_km": 475.9083120464118,
      "semi_major_axis_km": 6853.313352568049,
      "eccentricity": 0.000106,
      "inclination_deg": 53.1591,
      "raan_deg": 273.927,
      "arg_perigee_deg": 76.7625,
      "mean_anomaly_deg": 283.3494,
      "mean_motion_rev_day": 15.30212967
    },
    {
      "epoch": "2026-04-05T19:23:25.595232Z",
      "apogee_km": 475.9030779159548,
      "perigee_km": 474.44962722014225,
      "latitude_deg": 3.6041185257102855e-06,
      "longitude_deg": 148.96212543101097,
      "height_km": 475.90824927436523,
      "semi_major_axis_km": 6853.313352568049,
      "eccentricity": 0.00010604,
      "inclination_deg": 53.1591,
      "raan_deg": 273.927,
      "arg_perigee_deg": 76.7625,
      "mean_anomaly_deg": 283.3494,
      "mean_motion_rev_day": 15.30212967
    },
    {
      "epoch": "2026-04-07T04:18:32.740704Z",
      "apogee_km": 475.8811928938085,
      "perigee_km": 474.519708875815,
      "latitude_deg": 2.8972909384022523e-06,
      "longitude_deg": 7.458827773154129,
      "height_km": 476.1674906442153,
      "semi_major_axis_km": 6853.337450884811,
      "eccentricity": 9.933e-05,
      "inclination_deg": 53.1586,
      "raan_deg": 267.5554,
      "arg_perigee_deg": 95.795,
      "mean_anomaly_deg": 264.3164,
      "mean_motion_rev_day": 15.30204896
    },
    {
      "epoch": "2026-04-07T19:59:04.629408Z",
      "apogee_km": 475.70303504741514,
      "perigee_km": 474.694224042747,
      "latitude_deg": 5.692569939790039e-05,
      "longitude_deg": 128.6484255928934,
      "height_km": 476.19998582038386,
      "semi_major_axis_km": 6853.335629545081,
      "eccentricity": 7.36e-05,
      "inclination_deg": 53.158,
      "raan_deg": 264.5216,
      "arg_perigee_deg": 101.7562,
      "mean_anomaly_deg": 258.3522,
      "mean_motion_rev_day": 15.30205506
    },
    {
      "epoch": "2026-04-08T14:47:43.030464Z",
      "apogee_km": 475.8443432477952,
      "perigee_km": 474.57373289233783,
      "latitude_deg": 1.6003129974146835e-05,
      "longitude_deg": -157.9276383341346,
      "height_km": 476.0162276345623,
      "semi_major_axis_km": 6853.346038070066,
      "eccentricity": 9.27e-05,
      "inclination_deg": 53.1582,
      "raan_deg": 260.8781,
      "arg_perigee_deg": 81.7495,
      "mean_anomaly_deg": 278.3611,
      "mean_motion_rev_day": 15.3020202
    },
    {
      "epoch": "2026-04-09T19:00:40.976352Z",
      "apogee_km": 476.6157429755849,
      "perigee_km": 473.75105504879866,
      "latitude_deg": -4.1389287825463014e-05,
      "longitude_deg": 132.2130803199985,
      "height_km": 475.8704032054997,
      "semi_major_axis_km": 6853.320399012192,
      "eccentricity": 0.000209,
      "inclination_deg": 53.1539,
      "raan_deg": 255.4191,
      "arg_perigee_deg": 81.5979,
      "mean_anomaly_deg": 278.5258,
      "mean_motion_rev_day": 15.30210607
    },
    {
      "epoch": "2026-04-10T10:41:12.650784Z",
      "apogee_km": 475.8830207353594,
      "perigee_km": 474.52742964321715,
      "latitude_deg": -5.168969275118044e-05,
      "longitude_deg": -106.59857429355502,
      "height_km": 475.8486410304758,
      "semi_major_axis_km": 6853.342225189288,
      "eccentricity": 9.89e-05,
      "inclination_deg": 53.1585,
      "raan_deg": 252.3832,
      "arg_perigee_deg": 67.9014,
      "mean_anomaly_deg": 292.2091,
      "mean_motion_rev_day": 15.30203297
    },
    {
      "epoch": "2026-04-11T19:36:19.800576Z",
      "apogee_km": 475.91091222800515,
      "perigee_km": 474.5813558999971,
      "latitude_deg": 4.327533515587249e-05,
      "longitude_deg": 111.89958204140603,
      "height_km": 476.09118640151837,
      "semi_major_axis_km": 6853.383134064001,
      "eccentricity": 9.7e-05,
      "inclination_deg": 53.1571,
      "raan_deg": 246.013,
      "arg_perigee_deg": 85.4176,
      "mean_anomaly_deg": 274.6936,
      "mean_motion_rev_day": 15.30189596
    },
    {
      "epoch": "2026-04-12T19:07:07.459104Z",
      "apogee_km": 475.90630277973105,
      "perigee_km": 474.52781914390926,
      "latitude_deg": 9.169030807831192e-06,
      "longitude_deg": 113.68472434523726,
      "height_km": 476.0955281202787,
      "semi_major_axis_km": 6853.354060961819,
      "eccentricity": 0.00010057,
      "inclination_deg": 53.158,
      "raan_deg": 241.4624,
      "arg_perigee_deg": 88.358,
      "mean_anomaly_deg": 271.7536,
      "mean_motion_rev_day": 15.30199333
    },
    {
      "epoch": "2026-04-14T18:08:43.444896Z",
      "apogee_km": 475.9057248760946,
      "perigee_km": 474.50353117899976,
      "latitude_deg": 7.020827750617883e-06,
      "longitude_deg": 117.25116715894879,
      "height_km": 476.19693645639285,
      "semi_major_axis_km": 6853.341628027547,
      "eccentricity": 0.0001023,
      "inclination_deg": 53.1597,
      "raan_deg": 232.3601,
      "arg_perigee_deg": 97.6986,
      "mean_anomaly_deg": 262.4131,
      "mean_motion_rev_day": 15.30203497
    },
    {
      "epoch": "2026-04-15T14:31:25.023072Z",
      "apogee_km": 476.16540831740895,
      "perigee_km": 474.2505837255203,
      "latitude_deg": 2.174369366145311e-06,
      "longitude_deg": 166.79421912799475,
      "height_km": 476.4211469161061,
      "semi_major_axis_km": 6853.344996021464,
      "eccentricity": 0.0001397,
      "inclination_deg": 53.1603,
      "raan_deg": 228.4133,
      "arg_perigee_deg": 109.2162,
      "mean_anomaly_deg": 250.899,
      "mean_motion_rev_day": 15.30202369
    }
  ]
}